[{"OBJECT_NAME":"STARLINK-30591","OBJECT_ID":"2023-160P","EPOCH":"2024-01-02T17:19:59.214432","MEAN_MOTION":15.16001582,"ECCENTRICITY":0.0001362,"INCLINATION":43.0007,"RA_OF_ASC_NODE":92.4151,"ARG_OF_PERICENTER":280.3077,"MEAN_ANOMALY":79.7617,"EPHEMERIS_TYPE":0,"CLASSIFICATION_TYPE":"U","NORAD_CAT_ID":58088,"ELEMENT_SET_NO":999,"REV_AT_EPOCH":1301,"BSTAR":0.0018315,"MEAN_MOTION_DOT":0.0003577,"MEAN_MOTION_DDOT":0},{"OBJECT_NAME":"STARLINK-30584","OBJECT_ID":"2023-160Q","EPOCH":"2024-01-02T17:16:42.702816","MEAN_MOTION":15.16003535,"ECCENTRICITY":0.0001362,"INCLINATION":43.0005,"RA_OF_ASC_NODE":92.3979,"ARG_OF_PERICENTER":282.6136,"MEAN_ANOMALY":77.4559,"EPHEMERIS_TYPE":0,"CLASSIFICATION_TYPE":"U","NORAD_CAT_ID":58089,"ELEMENT_SET_NO":999,"REV_AT_EPOCH":1301,"BSTAR":0.0018237,"MEAN_MOTION_DOT":0.00035618,"MEAN_MOTION_DDOT":0},{"OBJECT_NAME":"STARLINK-30590","OBJECT_ID":"2023-160R","EPOCH":"2024-01-02T15:48:23.126400","MEAN_MOTION":15.15980446,"ECCENTRICITY":0.0001341,"INCLINATION":43.0002,"RA_OF_ASC_NODE":92.7973,"ARG_OF_PERICENTER":275.7028,"MEAN_ANOMALY":84.3667,"EPHEMERIS_TYPE":0,"CLASSIFICATION_TYPE":"U","NORAD_CAT_ID":58090,"ELEMENT_SET_NO":999,"REV_AT_EPOCH":1302,"BSTAR":0.00046155,"MEAN_MOTION_DOT":8.801e-5,"MEAN_MOTION_DDOT":0},{"OBJECT_NAME":"STARLINK-30608","OBJECT_ID":"2023-160S","EPOCH":"2024-01-02T17:13:26.092704","MEAN_MOTION":15.15990837,"ECCENTRICITY":0.0001349,"INCLINATION":43.0002,"RA_OF_ASC_NODE":92.3807,"ARG_OF_PERICENTER":274.182,"MEAN_ANOMALY":85.8873,"EPHEMERIS_TYPE":0,"CLASSIFICATION_TYPE":"U","NORAD_CAT_ID":58091,"ELEMENT_SET_NO":999,"REV_AT_EPOCH":1301,"BSTAR":0.001698,"MEAN_MOTION_DOT":0.00033123,"MEAN_MOTION_DDOT":0},{"OBJECT_NAME":"STARLINK-30615","OBJECT_ID":"2023-160T","EPOCH":"2024-01-02T15:32:00.021408","MEAN_MOTION":15.15975185,"ECCENTRICITY":0.0001329,"INCLINATION":43.0001,"RA_OF_ASC_NODE":92.7103,"ARG_OF_PERICENTER":272.2359,"MEAN_ANOMALY":87.8336,"EPHEMERIS_TYPE":0,"CLASSIFICATION_TYPE":"U","NORAD_CAT_ID":58092,"ELEMENT_SET_NO":999,"REV_AT_EPOCH":1300,"BSTAR":0.00041617,"MEAN_MOTION_DOT":7.911e-5,"MEAN_MOTION_DDOT":0},{"OBJECT_NAME":"STARLINK-30578","OBJECT_ID":"2023-160U","EPOCH":"2024-01-02T16:47:12.394464","MEAN_MOTION":15.15991575,"ECCENTRICITY":0.0001364,"INCLINATION":43.0006,"RA_OF_ASC_NODE":92.2421,"ARG_OF_PERICENTER":272.2619,"MEAN_ANOMALY":87.8072,"EPHEMERIS_TYPE":0,"CLASSIFICATION_TYPE":"U","NORAD_CAT_ID":58093,"ELEMENT_SET_NO":999,"REV_AT_EPOCH":1301,"BSTAR":0.0017968,"MEAN_MOTION_DOT":0.00035074,"MEAN_MOTION_DDOT":0},{"OBJECT_NAME":"STARLINK-30574","OBJECT_ID":"2023-160V","EPOCH":"2024-01-02T15:28:43.565952","MEAN_MOTION":15.15966778,"ECCENTRICITY":0.0001256,"INCLINATION":43.0002,"RA_OF_ASC_NODE":92.6922,"ARG_OF_PERICENTER":257.3118,"MEAN_ANOMALY":102.7589,"EPHEMERIS_TYPE":0,"CLASSIFICATION_TYPE":"U","NORAD_CAT_ID":58094,"ELEMENT_SET_NO":999,"REV_AT_EPOCH":1300,"BSTAR":0.00024029,"MEAN_MOTION_DOT":4.466e-5,"MEAN_MOTION_DDOT":0},{"OBJECT_NAME":"STARLINK-30570","OBJECT_ID":"2023-160W","EPOCH":"2024-01-02T15:25:26.583456","MEAN_MOTION":15.15977099,"ECCENTRICITY":0.0001298,"INCLINATION":43.0001,"RA_OF_ASC_NODE":92.6748,"ARG_OF_PERICENTER":271.2565,"MEAN_ANOMALY":88.8133,"EPHEMERIS_TYPE":0,"CLASSIFICATION_TYPE":"U","NORAD_CAT_ID":58095,"ELEMENT_SET_NO":999,"REV_AT_EPOCH":1300,"BSTAR":0.0005945,"MEAN_MOTION_DOT":0.00011406,"MEAN_MOTION_DDOT":0},{"OBJECT_NAME":"STARLINK-30581","OBJECT_ID":"2023-160X","EPOCH":"2024-01-02T16:43:55.721280","MEAN_MOTION":15.15989541,"ECCENTRICITY":0.0001285,"INCLINATION":43.0011,"RA_OF_ASC_NODE":92.2238,"ARG_OF_PERICENTER":284.5485,"MEAN_ANOMALY":75.5219,"EPHEMERIS_TYPE":0,"CLASSIFICATION_TYPE":"U","NORAD_CAT_ID":58096,"ELEMENT_SET_NO":999,"REV_AT_EPOCH":1303,"BSTAR":0.0017626,"MEAN_MOTION_DOT":0.00034397,"MEAN_MOTION_DDOT":0},{"OBJECT_NAME":"STARLINK-30594","OBJECT_ID":"2023-161A","EPOCH":"2024-01-03T00:19:36.565824","MEAN_MOTION":15.18716701,"ECCENTRICITY":0.0001802,"INCLINATION":53.0543,"RA_OF_ASC_NODE":258.0608,"ARG_OF_PERICENTER":68.3627,"MEAN_ANOMALY":291.7559,"EPHEMERIS_TYPE":0,"CLASSIFICATION_TYPE":"U","NORAD_CAT_ID":58097,"ELEMENT_SET_NO":999,"REV_AT_EPOCH":1244,"BSTAR":1.7259e-5,"MEAN_MOTION_DOT":4.4e-7,"MEAN_MOTION_DDOT":0},{"OBJECT_NAME":"STARLINK-30614","OBJECT_ID":"2023-161B","EPOCH":"2024-01-03T01:53:48.313824","MEAN_MOTION":15.18733712,"ECCENTRICITY":8.94e-5,"INCLINATION":53.0502,"RA_OF_ASC_NODE":257.7586,"ARG_OF_PERICENTER":121.9099,"MEAN_ANOMALY":238.1982,"EPHEMERIS_TYPE":0,"CLASSIFICATION_TYPE":"U","NORAD_CAT_ID":58098,"ELEMENT_SET_NO":999,"REV_AT_EPOCH":1245,"BSTAR":0.00082959,"MEAN_MOTION_DOT":0.00017163,"MEAN_MOTION_DDOT":0},{"OBJECT_NAME":"STARLINK-30607","OBJECT_ID":"2023-161C","EPOCH":"2024-01-02T23:18:07.939872","MEAN_MOTION":15.1872848,"ECCENTRICITY":0.0001402,"INCLINATION":53.0557,"RA_OF_ASC_NODE":249.9163,"ARG_OF_PERICENTER":100.1256,"MEAN_ANOMALY":259.9897,"EPHEMERIS_TYPE":0,"CLASSIFICATION_TYPE":"U","NORAD_CAT_ID":58099,"ELEMENT_SET_NO":999,"REV_AT_EPOCH":1229,"BSTAR":0.00020021,"MEAN_MOTION_DOT":3.892e-5,"MEAN_MOTION_DDOT":0},{"OBJECT_NAME":"STARLINK-30600","OBJECT_ID":"2023-161D","EPOCH":"2024-01-03T03:21:49.593312","MEAN_MOTION":15.18731589,"ECCENTRICITY":0.0001334,"INCLINATION":53.0509,"RA_OF_ASC_NODE":257.4287,"ARG_OF_PERICENTER":98.378,"MEAN_ANOMALY":261.7365,"EPHEMERIS_TYPE":0,"CLASSIFICATION_TYPE":"U","NORAD_CAT_ID":58100,"ELEMENT_SET_NO":999,"REV_AT_EPOCH":1246,"BSTAR":0.00016665,"MEAN_MOTION_DOT":3.186e-5,"MEAN_MOTION_DDOT":0},{"OBJECT_NAME":"STARLINK-30605","OBJECT_ID":"2023-161E","EPOCH":"2024-01-02T22:30:14.082336","MEAN_MOTION":15.18741327,"ECCENTRICITY":0.0001439,"INCLINATION":53.0523,"RA_OF_ASC_NODE":258.2998,"ARG_OF_PERICENTER":113.6099,"MEAN_ANOMALY":246.5047,"EPHEMERIS_TYPE":0,"CLASSIFICATION_TYPE":"U","NORAD_CAT_ID":58101,"ELEMENT_SET_NO":999,"REV_AT_EPOCH":1256,"BSTAR":0.00040464,"MEAN_MOTION_DOT":8.2e-5,"MEAN_MOTION_DDOT":0},{"OBJECT_NAME":"STARLINK-30592","OBJECT_ID":"2023-161F","EPOCH":"2024-01-02T22:29:41.130240","MEAN_MOTION":15.18732623,"ECCENTRICITY":0.0001501,"INCLINATION":53.0522,"RA_OF_ASC_NODE":258.2976,"ARG_OF_PERICENTER":102.7931,"MEAN_ANOMALY":257.3231,"EPHEMERIS_TYPE":0,"CLASSIFICATION_TYPE":"U","NORAD_CAT_ID":58102,"ELEMENT_SET_NO":999,"REV_AT_EPOCH":1256,"BSTAR":0.00028,"MEAN_MOTION_DOT":5.572e-5,"MEAN_MOTION_DDOT":0},{"OBJECT_NAME":"STARLINK-30589","OBJECT_ID":"2023-161G","EPOCH":"2024-01-02T22:22:56.269344","MEAN_MOTION":15.1873643,"ECCENTRICITY":0.0001483,"INCLINATION":53.0534,"RA_OF_ASC_NODE":258.2699,"ARG_OF_PERICENTER":124.0947,"MEAN_ANOMALY":236.0188,"EPHEMERIS_TYPE":0,"CLASSIFICATION_TYPE":"U","NORAD_CAT_ID":58103,"ELEMENT_SET_NO":999,"REV_AT_EPOCH":1256,"BSTAR":0.00029622,"MEAN_MOTION_DOT":5.915e-5,"MEAN_MOTION_DDOT":0},{"OBJECT_NAME":"STARLINK-30617","OBJECT_ID":"2023-161H","EPOCH":"2024-01-03T03:06:40.030272","MEAN_MOTION":15.18748384,"ECCENTRICITY":0.0001208,"INCLINATION":53.053,"RA_OF_ASC_NODE":257.3657,"ARG_OF_PERICENTER":113.3793,"MEAN_ANOMALY":246.7328,"EPHEMERIS_TYPE":0,"CLASSIFICATION_TYPE":"U","NORAD_CAT_ID":58104,"ELEMENT_SET_NO":999,"REV_AT_EPOCH":1246,"BSTAR":0.00072496,"MEAN_MOTION_DOT":0.0001496,"MEAN_MOTION_DDOT":0},{"OBJECT_NAME":"STARLINK-30616","OBJECT_ID":"2023-161J","EPOCH":"2024-01-02T22:15:39.262464","MEAN_MOTION":15.1871236,"ECCENTRICITY":0.0001267,"INCLINATION":53.0537,"RA_OF_ASC_NODE":258.2398,"ARG_OF_PERICENTER":117.5331,"MEAN_ANOMALY":242.5792,"EPHEMERIS_TYPE":0,"CLASSIFICATION_TYPE":"U","NORAD_CAT_ID":58105,"ELEMENT_SET_NO":999,"REV_AT_EPOCH":1256,"BSTAR":0.00087835,"MEAN_MOTION_DOT":0.00018182,"MEAN_MOTION_DDOT":0},{"OBJECT_NAME":"STARLINK-30612","OBJECT_ID":"2023-161K","EPOCH":"2024-01-02T22:15:05.834304","MEAN_MOTION":15.18702283,"ECCENTRICITY":0.0001363,"INCLINATION":53.0532,"RA_OF_ASC_NODE":258.2357,"ARG_OF_PERICENTER":112.838,"MEAN_ANOMALY":247.2759,"EPHEMERIS_TYPE":0,"CLASSIFICATION_TYPE":"U","NORAD_CAT_ID":58106,"ELEMENT_SET_NO":999,"REV_AT_EPOCH":1228,"BSTAR":0.00098025,"MEAN_MOTION_DOT":0.00020328,"MEAN_MOTION_DDOT":0},{"OBJECT_NAME":"STARLINK-30421","OBJECT_ID":"2023-161L","EPOCH":"2024-01-03T02:52:37.559424","MEAN_MOTION":15.18740281,"ECCENTRICITY":0.0001361,"INCLINATION":53.053,"RA_OF_ASC_NODE":257.3036,"ARG_OF_PERICENTER":80.6293,"MEAN_ANOMALY":279.4855,"EPHEMERIS_TYPE":0,"CLASSIFICATION_TYPE":"U","NORAD_CAT_ID":58107,"ELEMENT_SET_NO":999,"REV_AT_EPOCH":1247,"BSTAR":0.00057369,"MEAN_MOTION_DOT":0.00011764,"MEAN_MOTION_DDOT":0},{"OBJECT_NAME":"STARLINK-30611","OBJECT_ID":"2023-161M","EPOCH":"2024-01-02T23:42:32.774112","MEAN_MOTION":15.18724466,"ECCENTRICITY":0.0001519,"INCLINATION":53.0532,"RA_OF_ASC_NODE":257.8984,"ARG_OF_PERICENTER":102.5183,"MEAN_ANOMALY":257.5981,"EPHEMERIS_TYPE":0,"CLASSIFICATION_TYPE":"U","NORAD_CAT_ID":58108,"ELEMENT_SET_NO":999,"REV_AT_EPOCH":1244,"BSTAR":0.00070092,"MEAN_MOTION_DOT":0.00014442,"MEAN_MOTION_DDOT":0},{"OBJECT_NAME":"STARLINK-30606","OBJECT_ID":"2023-161N","EPOCH":"2024-01-03T02:45:19.896768","MEAN_MOTION":15.18711045,"ECCENTRICITY":0.0001394,"INCLINATION":53.0525,"RA_OF_ASC_NODE":257.2732,"ARG_OF_PERICENTER":91.9457,"MEAN_ANOMALY":268.1697,"EPHEMERIS_TYPE":0,"CLASSIFICATION_TYPE":"U","NORAD_CAT_ID":58109,"ELEMENT_SET_NO":999,"REV_AT_EPOCH":1246,"BSTAR":-0.00030893,"MEAN_MOTION_DOT":-6.803e-5,"MEAN_MOTION_DDOT":0},{"OBJECT_NAME":"STARLINK-30596","OBJECT_ID":"2023-161P","EPOCH":"2024-01-02T23:35:13.165728","MEAN_MOTION":15.1878937,"ECCENTRICITY":0.0001631,"INCLINATION":53.0528,"RA_OF_ASC_NODE":257.8699,"ARG_OF_PERICENTER":77.6453,"MEAN_ANOMALY":282.4724,"EPHEMERIS_TYPE":0,"CLASSIFICATION_TYPE":"U","NORAD_CAT_ID":58110,"ELEMENT_SET_NO":999,"REV_AT_EPOCH":1244,"BSTAR":0.0015966,"MEAN_MOTION_DOT":0.00033456,"MEAN_MOTION_DDOT":0}]
